NORAD_CAT_ID,OBJECT_NAME,OBJECT_TYPE,EPOCH,MEAN_MOTION,ECCENTRICITY,INCLINATION,RA_OF_ASC_NODE,ARG_OF_PERICENTER,MEAN_ANOMALY,BSTAR,MEAN_MOTION_DOT,MEAN_MOTION_DDOT,TLE_LINE0,TLE_LINE1,TLE_LINE2,SEMIMAJOR_AXIS,PERIOD,APOGEE,PERIGEE,DECAYED
52272.0,STARLINK-3781,PAYLOAD,2023-02-23 10:17:42,15.08845609,0.0001126,53.2154,53.2634,99.7907,260.3212,0.0015562,0.00024569,0.0,0 STARLINK-3781,1 52272U 22041M   23054.42896695  .00024569  00000-0  15562-2 0  9997,2 52272  53.2154  53.2634 0001126  99.7907 260.3212 15.08845609 47973,6917.863,95.437,540.507,538.949,0.0
52272.0,STARLINK-3781,PAYLOAD,2023-02-23 16:39:15,15.08843622,0.0001362,53.2153,52.0726,92.2579,267.8569,0.0010716,0.00016809,0.0,0 STARLINK-3781,1 52272U 22041M   23054.69392912  .00016809  00000-0  10716-2 0  9993,2 52272  53.2153  52.0726 0001362  92.2579 267.8569 15.08843622 46795,6917.869,95.437,540.677,538.792,0.0
52272.0,STARLINK-3781,PAYLOAD,2023-02-23 23:00:48,15.08848894,0.0001477,53.2152,50.8847,95.8198,264.2963,0.0013693,0.00021577,0.0,0 STARLINK-3781,1 52272U 22041M   23054.95888949  .00021577  00000-0  13693-2 0  9997,2 52272  53.2152  50.8847 0001477  95.8198 264.2963 15.08848894 48053,6917.853,95.437,540.74,538.696,0.0
52272.0,STARLINK-3781,PAYLOAD,2023-02-24 11:43:52,15.08859158,0.0001242,53.2153,48.5047,96.2916,263.8217,0.00079871,0.00012453,0.0,0 STARLINK-3781,1 52272U 22041M   23055.48880348  .00012453  00000-0  79871-3 0  9995,2 52272  53.2153  48.5047 0001242  96.2916 263.8217 15.08859158 48134,6917.822,95.436,540.546,538.828,0.0
52272.0,STARLINK-3781,PAYLOAD,2023-02-24 16:30:01,15.08845823,3.04e-05,53.2156,47.6121,110.7627,249.3398,0.00027931,4.161e-05,0.0,0 STARLINK-3781,1 52272U 22041M   23055.68752270  .00004161  00000-0  27931-3 0  9996,2 52272  53.2156  47.6121 0000304 110.7627 249.3398 15.08845823 46949,6917.863,95.437,539.938,539.517,0.0
52272.0,STARLINK-3781,PAYLOAD,2023-02-24 22:51:35,15.08836831,0.0001407,53.2152,46.4232,83.7511,276.3642,3.3363e-05,2.43e-06,0.0,0 STARLINK-3781,1 52272U 22041M   23055.95248939  .00000243  00000-0  33363-4 0  9992,2 52272  53.2152  46.4232 0001407  83.7511 276.3642 15.08836831 48203,6917.89,95.438,540.728,538.782,0.0
52272.0,STARLINK-3781,PAYLOAD,2023-02-25 11:34:40,15.08838585,0.0001369,53.2152,44.0439,81.1761,278.9386,0.00021036,3.061e-05,0.0,0 STARLINK-3781,1 52272U 22041M   23056.48241236  .00003061  00000-0  21036-3 0  9998,2 52272  53.2152  44.0439 0001369  81.1761 278.9386 15.08838585 47066,6917.885,95.438,540.697,538.803,0.0
52272.0,STARLINK-3781,PAYLOAD,2023-02-25 16:20:49,15.08838463,0.0001542,53.2161,43.1527,75.8702,284.2462,0.00021181,3.084e-05,0.0,0 STARLINK-3781,1 52272U 22041M   23056.68113375  .00003084  00000-0  21181-3 0  9998,2 52272  53.2161  43.1527 0001542  75.8702 284.2462 15.08838463 47095,6917.885,95.438,540.817,538.683,0.0
52272.0,STARLINK-3781,PAYLOAD,2023-02-26 05:03:54,15.08858413,0.0001207,53.215,40.7728,84.161,275.952,0.00084554,0.00013201,0.0,0 STARLINK-3781,1 52272U 22041M   23057.21104830  .00013201  00000-0  84554-3 0  9999,2 52272  53.2150  40.7728 0001207  84.1610 275.9520 15.08858413 48391,6917.824,95.436,540.524,538.854,0.0
52272.0,STARLINK-3781,PAYLOAD,2023-02-26 16:11:36,15.08859245,0.0001021,53.2143,38.693,75.3882,284.7223,0.00071326,0.00011088,0.0,0 STARLINK-3781,1 52272U 22041M   23057.67472529  .00011088  00000-0  71326-3 0  9996,2 52272  53.2143  38.6930 0001021  75.3882 284.7223 15.08859245 48461,6917.822,95.436,540.393,538.98,0.0
52272.0,STARLINK-3781,PAYLOAD,2023-02-27 09:40:50,15.08866924,0.0001458,53.216,35.4187,104.3383,255.7771,0.00066923,0.00010387,0.0,0 STARLINK-3781,1 52272U 22041M   23058.40336114  .00010387  00000-0  66923-3 0  9995,2 52272  53.2160  35.4187 0001458 104.3383 255.7771 15.08866924 48572,6917.798,95.436,540.672,538.654,0.0
52272.0,STARLINK-3781,PAYLOAD,2023-02-27 22:23:55,15.08871155,0.0001113,53.2161,33.0415,91.681,268.431,0.0012352,0.00019442,0.0,0 STARLINK-3781,1 52272U 22041M   23058.93327753  .00019442  00000-0  12352-2 0  9999,2 52272  53.2161  33.0415 0001113  91.6810 268.4310 15.08871155 47438,6917.785,95.436,540.42,538.88,0.0
52272.0,STARLINK-3781,PAYLOAD,2023-02-28 07:56:12,15.08910891,0.0001399,53.2172,31.2573,91.346,268.7692,0.0025928,0.00041299,0.0,0 STARLINK-3781,1 52272U 22041M   23059.33070336  .00041299  00000-0  25928-2 0  9994,2 52272  53.2172  31.2573 0001399  91.3460 268.7692 15.08910891 48718,6917.664,95.433,540.496,538.561,0.0
52272.0,STARLINK-3781,PAYLOAD,2023-03-01 04:36:16,15.0878389,5.82e-05,53.2166,27.3913,128.9754,231.129,0.0012754,0.00020037,0.0,0 STARLINK-3781,1 52272U 22041M   23060.19186024  .00020037  00000-0  12754-2 0  9992,2 52272  53.2166  27.3913 0000582 128.9754 231.1290 15.08783890 48840,6918.052,95.441,540.32,539.514,0.0
52272.0,STARLINK-3781,PAYLOAD,2023-03-01 22:05:31,15.08818812,0.0001144,53.2153,24.1197,128.6012,231.5083,0.0027955,0.00044457,0.0,0 STARLINK-3781,1 52272U 22041M   23060.92050906  .00044457  00000-0  27955-2 0  9993,2 52272  53.2153  24.1197 0001144 128.6012 231.5083 15.08818812 47738,6917.945,95.439,540.602,539.019,0.0
52272.0,STARLINK-3781,PAYLOAD,2023-03-02 02:51:40,15.08868983,6.57e-05,53.2169,23.2299,143.0358,217.068,0.0024519,0.00038981,0.0,0 STARLINK-3781,1 52272U 22041M   23061.11922428  .00038981  00000-0  24519-2 0  9990,2 52272  53.2169  23.2299 0000657 143.0358 217.0680 15.08868983 48984,6917.792,95.436,540.111,539.202,0.0
52272.0,STARLINK-3781,PAYLOAD,2023-03-02 20:20:54,15.08864811,5.49e-05,53.2172,19.9584,66.4506,293.6544,0.00083002,0.00012956,0.0,0 STARLINK-3781,1 52272U 22041M   23061.84785648  .00012956  00000-0  83002-3 0  9998,2 52272  53.2172  19.9584 0000549  66.4506 293.6544 15.08864811 49098,6917.805,95.436,540.049,539.29,0.0
52272.0,STARLINK-3781,PAYLOAD,2023-03-03 07:28:35,15.08897287,3.88e-05,53.2163,17.8757,91.7466,268.357,0.0023869,0.00037964,0.0,0 STARLINK-3781,1 52272U 22041M   23062.31152486  .00037964  00000-0  23869-2 0  9999,2 52272  53.2163  17.8757 0000388  91.7466 268.3570 15.08897287 49163,6917.705,95.434,539.839,539.302,0.0
52272.0,STARLINK-3781,PAYLOAD,2023-03-04 04:08:36,15.08874684,0.0001161,53.2163,14.0102,72.902,287.2099,0.0011109,0.00017453,0.0,0 STARLINK-3781,1 52272U 22041M   23063.17263967  .00017453  00000-0  11109-2 0  9996,2 52272  53.2163  14.0102 0001161  72.9020 287.2099 15.08874684 49299,6917.774,95.435,540.443,538.836,0.0
52272.0,STARLINK-3781,PAYLOAD,2023-03-04 20:02:27,15.08855483,0.0001029,53.216,11.0355,89.4552,270.6558,0.0012864,0.00020253,0.0,0 STARLINK-3781,1 52272U 22041M   23063.83503897  .00020253  00000-0  12864-2 0  9999,2 52272  53.2160  11.0355 0001029  89.4552 270.6558 15.08855483 49392,6917.833,95.437,540.41,538.986,0.0
52272.0,STARLINK-3781,PAYLOAD,2023-03-05 02:24:00,15.08827473,7.77e-05,53.2158,9.8462,60.5385,299.5684,0.0016894,0.00026692,0.0,0 STARLINK-3781,1 52272U 22041M   23064.10000579  .00026692  00000-0  16894-2 0  9999,2 52272  53.2158   9.8462 0000777  60.5385 299.5684 15.08827473 49439,6917.919,95.438,540.321,539.246,0.0
52272.0,STARLINK-3781,PAYLOAD,2023-03-05 03:59:23,15.08835902,8.93e-05,53.2159,9.5495,52.1,308.0073,0.003,0.00047775,0.0,0 STARLINK-3781,1 52272U 22041M   23064.16624687  .00047775  00000-0  30000-2 0  9997,2 52272  53.2159   9.5495 0000893  52.1000 308.0073 15.08835902 49448,6917.893,95.438,540.376,539.14,0.0
52272.0,STARLINK-3781,PAYLOAD,2023-03-06 05:25:33,15.08886121,9.03e-05,53.2169,4.791,83.6391,276.4704,0.0028526,0.00045462,0.0,0 STARLINK-3781,1 52272U 22041M   23065.22608699  .00045462  00000-0  28526-2 0  9991,2 52272  53.2169   4.7910 0000903  83.6391 276.4704 15.08886121 49608,6917.739,95.435,540.229,538.98,0.0
52272.0,STARLINK-3781,PAYLOAD,2023-03-06 19:44:03,15.08831005,0.0001122,53.2169,2.115,66.9089,293.2021,0.00096972,0.00015175,0.0,0 STARLINK-3781,1 52272U 22041M   23065.82225710  .00015175  00000-0  96972-3 0  9995,2 52272  53.2169   2.1150 0001122  66.9089 293.2021 15.08831005 49697,6917.908,95.438,540.549,538.997,0.0
52272.0,STARLINK-3781,PAYLOAD,2023-03-07 05:16:21,15.08855165,0.0001365,53.2166,0.3297,78.2939,281.8207,0.0013492,0.00021259,0.0,0 STARLINK-3781,1 52272U 22041M   23066.21969569  .00021259  00000-0  13492-2 0  9991,2 52272  53.2166   0.3297 0001365  78.2939 281.8207 15.08855165 49754,6917.834,95.437,540.643,538.755,0.0
52272.0,STARLINK-3781,PAYLOAD,2023-03-07 19:34:50,15.08843496,0.0001461,53.218,357.6551,74.3797,285.7356,0.0011139,0.00017486,0.0,0 STARLINK-3781,1 52272U 22041M   23066.81586209  .00017486  00000-0  11139-2 0  9996,2 52272  53.2180 357.6551 0001461  74.3797 285.7356 15.08843496 49849,6917.87,95.437,540.745,538.724,0.0
52272.0,STARLINK-3781,PAYLOAD,2023-03-08 05:07:08,15.08865972,0.0001352,53.2173,355.871,92.5167,267.598,0.0019045,0.00030174,0.0,0 STARLINK-3781,1 52272U 22041M   23067.21329673  .00030174  00000-0  19045-2 0  9994,2 52272  53.2173 355.8710 0001352  92.5167 267.5980 15.08865972 49901,6917.801,95.436,540.601,538.731,0.0
52272.0,STARLINK-3781,PAYLOAD,2023-03-08 19:25:37,15.08863777,0.0001533,53.2168,353.194,90.3381,269.7787,0.0024302,0.00038626,0.0,0 STARLINK-3781,1 52272U 22041M   23067.80946318  .00038626  00000-0  24302-2 0  9992,2 52272  53.2168 353.1940 0001533  90.3381 269.7787 15.08863777 49995,6917.808,95.436,540.733,538.612,0.0
52272.0,STARLINK-3781,PAYLOAD,2023-03-09 01:47:10,15.08857107,0.0001391,53.2177,352.0073,78.7543,281.3606,0.0019697,0.00031214,0.0,0 STARLINK-3781,1 52272U 22041M   23068.07442477  .00031214  00000-0  19697-2 0  9996,2 52272  53.2177 352.0073 0001391  78.7543 281.3606 15.08857107 50039,6917.828,95.436,540.655,538.731,0.0
52272.0,STARLINK-3781,PAYLOAD,2023-03-09 22:27:10,15.08863427,0.0001423,53.2162,348.1405,70.3061,289.8084,0.0014379,0.00022685,0.0,0 STARLINK-3781,1 52272U 22041M   23068.93554169  .00022685  00000-0  14379-2 0  9997,2 52272  53.2162 348.1405 0001423  70.3061 289.8084 15.08863427 48949,6917.809,95.436,540.658,538.689,0.0
